[{"OBJECT_NAME":"STARLINK-4411","OBJECT_ID":"2022-084P","EPOCH":"2026-03-09T17:09:48.696480","MEAN_MOTION":15.05645145,"ECCENTRICITY":0.00013602,"INCLINATION":97.604,"RA_OF_ASC_NODE":131.2593,"ARG_OF_PERICENTER":96.9961,"MEAN_ANOMALY":263.142,"EPHEMERIS_TYPE":0,"CLASSIFICATION_TYPE":"U","NORAD_CAT_ID":53202,"ELEMENT_SET_NO":999,"REV_AT_EPOCH":19938,"BSTAR":3.9795947e-5,"MEAN_MOTION_DOT":5.13e-6,"MEAN_MOTION_DDOT":0},{"OBJECT_NAME":"OBJECT R","OBJECT_ID":"2021-022R","EPOCH":"2026-03-09T22:54:37.456416","MEAN_MOTION":15.08912229,"ECCENTRICITY":0.00182027,"INCLINATION":97.3728,"RA_OF_ASC_NODE":308.5333,"ARG_OF_PERICENTER":149.1845,"MEAN_ANOMALY":211.0456,"EPHEMERIS_TYPE":0,"CLASSIFICATION_TYPE":"U","NORAD_CAT_ID":47947,"ELEMENT_SET_NO":999,"REV_AT_EPOCH":27304,"BSTAR":2.1057411e-5,"MEAN_MOTION_DOT":2.72e-6,"MEAN_MOTION_DDOT":0}]
